CSS (TIANHE)            
1 48274U 21035A   26193.33050829  .00000806  00000+0  14701-4 0  9997
2 48274  41.4686 169.1964 0002428 290.9815  69.0763 15.58035041297092
